[{"OBJECT_NAME":"SCS-01 J","OBJECT_ID":"2025-100J","EPOCH":"2026-03-09T22:31:25.904064","MEAN_MOTION":15.31338011,"ECCENTRICITY":0.00063909,"INCLINATION":97.3693,"RA_OF_ASC_NODE":145.4824,"ARG_OF_PERICENTER":272.025,"MEAN_ANOMALY":88.026,"EPHEMERIS_TYPE":0,"CLASSIFICATION_TYPE":"U","NORAD_CAT_ID":63990,"ELEMENT_SET_NO":999,"REV_AT_EPOCH":4563,"BSTAR":0.0011832888,"MEAN_MOTION_DOT":0.00035886,"MEAN_MOTION_DDOT":0},{"OBJECT_NAME":"STARLINK-34492","OBJECT_ID":"2025-133B","EPOCH":"2026-03-09T13:05:36.256992","MEAN_MOTION":15.30203368,"ECCENTRICITY":0.0001246,"INCLINATION":53.158,"RA_OF_ASC_NODE":117.6631,"ARG_OF_PERICENTER":58.6405,"MEAN_ANOMALY":301.4717,"EPHEMERIS_TYPE":0,"CLASSIFICATION_TYPE":"U","NORAD_CAT_ID":64473,"ELEMENT_SET_NO":999,"REV_AT_EPOCH":4116,"BSTAR":0.00078907,"MEAN_MOTION_DOT":0.00023086,"MEAN_MOTION_DDOT":0}]
